0 DELTA 1 DEB
1 12542U 76077DX  13282.67467620  .00000012  00000-0  35077-3 0  1535
2 12542 101.4483 295.6545 0060597 232.2052 241.6984 12.51766597498213
0 DELTA 1 DEB
1 12542U 76077DX  13287.63038484  .00000010  00000-0  34117-3 0  1552
2 12542 101.4474 300.4209 0060731 222.5666 253.8980 12.51767418498830
0 DELTA 1 DEB
1 12542U 76077DX  13289.93535993 -.00000009  00000-0  22076-3 0  1565
2 12542 101.4473 302.6376 0060765 218.0762 200.9539 12.51767774499123
0 DELTA 1 DEB
1 12542U 76077DX  13292.00628668 -.00000001  00000-0  26713-3 0  1574
2 12542 101.4475 304.6289 0060780 214.0440 173.3042 12.51768125499387
0 DELTA 1 DEB
1 12542U 76077DX  13294.51223091  .00000018  00000-0  39072-3 0  1583
2 12542 101.4476 307.0385 0060823 209.1658 306.0039 12.51768482499697
